[{"OBJECT_NAME":"PROPCUBE 3","OBJECT_ID":"2015-058K","EPOCH":"2026-03-09T17:34:06.780288","MEAN_MOTION":14.93528956,"ECCENTRICITY":0.01235273,"INCLINATION":64.7688,"RA_OF_ASC_NODE":203.0958,"ARG_OF_PERICENTER":99.6156,"MEAN_ANOMALY":261.8939,"EPHEMERIS_TYPE":0,"CLASSIFICATION_TYPE":"U","NORAD_CAT_ID":40973,"ELEMENT_SET_NO":999,"REV_AT_EPOCH":9994,"BSTAR":0.00046586011,"MEAN_MOTION_DOT":5.546e-5,"MEAN_MOTION_DDOT":0},{"OBJECT_NAME":"STARLINK-3726","OBJECT_ID":"2022-029AL","EPOCH":"2026-03-09T07:47:26.196000","MEAN_MOTION":15.08829473,"ECCENTRICITY":0.00013345,"INCLINATION":53.2169,"RA_OF_ASC_NODE":80.7606,"ARG_OF_PERICENTER":88.5591,"MEAN_ANOMALY":271.5554,"EPHEMERIS_TYPE":0,"CLASSIFICATION_TYPE":"U","NORAD_CAT_ID":52122,"ELEMENT_SET_NO":999,"REV_AT_EPOCH":22073,"BSTAR":-6.2234522e-5,"MEAN_MOTION_DOT":-1.278e-5,"MEAN_MOTION_DDOT":0}]
